[{"OBJECT_NAME":"GEESAT-6 09","OBJECT_ID":"2025-214K","EPOCH":"2026-03-09T22:24:29.731680","MEAN_MOTION":14.8300753,"ECCENTRICITY":0.00083289,"INCLINATION":49.9843,"RA_OF_ASC_NODE":48.1126,"ARG_OF_PERICENTER":190.9189,"MEAN_ANOMALY":169.1569,"EPHEMERIS_TYPE":0,"CLASSIFICATION_TYPE":"U","NORAD_CAT_ID":65721,"ELEMENT_SET_NO":999,"REV_AT_EPOCH":2477,"BSTAR":0.00038162115,"MEAN_MOTION_DOT":2.911e-5,"MEAN_MOTION_DDOT":0},{"OBJECT_NAME":"ARIANE 1 DEB","OBJECT_ID":"1986-019FQ","EPOCH":"2026-03-09T15:45:44.519328","MEAN_MOTION":14.83168989,"ECCENTRICITY":0.0034331,"INCLINATION":99.0515,"RA_OF_ASC_NODE":331.253,"ARG_OF_PERICENTER":244.6971,"MEAN_ANOMALY":115.0681,"EPHEMERIS_TYPE":0,"CLASSIFICATION_TYPE":"U","NORAD_CAT_ID":17429,"ELEMENT_SET_NO":999,"REV_AT_EPOCH":5729,"BSTAR":0.0016367,"MEAN_MOTION_DOT":0.00013448,"MEAN_MOTION_DDOT":0}]
